ONEWEB-0291             
1 49081U 21075G   24159.39226226  .00000065  00000+0  13361-3 0  9997
2 49081  87.9159 153.1353 0001931  79.7950 280.3399 13.17651160137179
ONEWEB-0293             
1 49082U 21075H   24159.49350714 -.00000127  00000+0 -36123-3 0  9991
2 49082  87.9158 153.1287 0002018  79.3016 280.8343 13.17649970137205
ONEWEB-0294             
1 49083U 21075J   24158.45608479  .00000242  00000+0  63945-3 0  9999
2 49083  87.8927 138.1553 0002195  67.5621 292.5740 13.12304816137411
ONEWEB-0295             
1 49084U 21075K   24159.49510378  .00000010  00000+0 -85939-5 0  9998
2 49084  87.9162 153.1058 0001654  78.4675 281.6642 13.17646703137149
ONEWEB-0296             
1 49085U 21075L   24159.50464573 -.00000416  00000+0 -11914-2 0  9996
2 49085  87.8930 137.9477 0001676  63.4221 296.7079 13.12487413138544
ONEWEB-0297             
1 49086U 21075M   24158.92591674  .00000356  00000+0  95280-3 0  9995
2 49086  87.8938 138.0688 0001965  87.7578 272.3776 13.12579490139074
ONEWEB-0298             
1 49087U 21075N   24158.51110899  .00000041  00000+0  72232-4 0  9991
2 49087  87.9163 153.3195 0001846  90.1964 269.9379 13.17650412136082
ONEWEB-0299             
1 49088U 21075P   24159.49984867  .00000052  00000+0  99834-4 0  9993
2 49088  87.9157 153.0933 0001737  87.2936 272.8394 13.17646788137169
